SatCatId,ObjectName,LaunchYear,OrbitalPeriod,LaunchMass,StatusCode,Inclination,Status,UcsData,OrbitClassEstimated,LaunchSiteCountry,Owner,UseType,Purpose,LaunchVehicleClass,TLE1,TLE2,MeanMotion,Eccentricity,OrbitClass
55355,STARLINK-5647,2023,95.84,290.0,+,43.0,Active,1,LEO,USA,USA,Commercial,Communications,Falcon,1 55355U 23013AA  25056.63131754 -.00000025  00000+0  13194-4 0  9999,2 55355  43.0008 188.8379 0001180 269.6909  90.3798 15.02536277114982,15.02536277,0.000118,LEO
55357,STARLINK-5651,2023,95.84,290.0,+,43.0,Active,1,LEO,USA,USA,Commercial,Communications,Falcon,1 55357U 23013AC  25056.63243665 -.00001378  00000+0 -86979-4 0  9990,2 55357  43.0020 188.8590 0001274 267.1691  92.9006 15.02530487114996,15.02530487,0.0001274,LEO
55358,STARLINK-5622,2023,95.84,290.0,+,43.0,Active,1,LEO,USA,USA,Commercial,Communications,Falcon,1 55358U 23013AD  25056.63465292  .00001196  00000+0  10360-3 0  9999,2 55358  42.9974 188.8781 0000836 261.2101  98.8646 15.02536125114999,15.02536125,8.36e-05,LEO
55359,STARLINK-5641,2023,95.84,290.0,+,43.0,Active,1,LEO,USA,USA,Commercial,Communications,Falcon,1 55359U 23013AE  25056.69556127  .00002322  00000+0  18681-3 0  9990,2 55359  43.0024 188.4729 0001185 264.8255  95.2452 15.02551333115437,15.02551333,0.0001185,LEO
55360,STARLINK-5664,2023,95.84,290.0,+,43.0,Active,1,LEO,USA,USA,Commercial,Communications,Falcon,1 55360U 23013AF  25056.41275972  .00001270  00000+0  10905-3 0  9990,2 55360  43.0014 202.7783 0000841 257.9277 102.1471 15.02531347114816,15.02531347,8.41e-05,LEO
55361,STARLINK-5665,2023,95.84,290.0,+,43.0,Active,1,LEO,USA,USA,Commercial,Communications,Falcon,1 55361U 23013AG  25056.64046620 -.00000473  00000+0 -19912-4 0  9996,2 55361  43.0016 175.9139 0001338 270.5752  89.4937 15.02529189115575,15.02529189,0.0001338,LEO
55362,STARLINK-5574,2023,95.84,290.0,+,43.0,Active,1,LEO,USA,USA,Commercial,Communications,Falcon,1 55362U 23013AH  25056.38564537  .00000735  00000+0  69474-4 0  9997,2 55362  43.0027 177.4396 0001306 262.9908  97.0785 15.02536239115102,15.02536239,0.0001306,LEO
55363,STARLINK-5648,2023,93.61,290.0,+,43.0,Active,1,LEO,USA,USA,Commercial,Communications,Falcon,1 55363U 23013AJ  25056.58334491  .01217089  00000+0  28843-1 0  9999,2 55363  43.0005 199.9100 0001416 266.6980  45.1825 15.38449032  5575,15.38449032,0.0001416,LEO
55364,STARLINK-5627,2023,95.84,290.0,+,43.0,Active,1,LEO,USA,USA,Commercial,Communications,Falcon,1 55364U 23013AK  25056.69336576 -.00002191  00000+0 -14712-3 0  9997,2 55364  43.0016 188.4588 0001417 270.2784  89.7896 15.02546557115435,15.02546557,0.0001417,LEO
55365,STARLINK-5639,2023,95.84,290.0,+,43.0,Active,1,LEO,USA,USA,Commercial,Communications,Falcon,1 55365U 23013AL  25056.45271489  .00000674  00000+0  64952-4 0  9997,2 55365  43.0019 203.0814 0001158 269.2856  90.7854 15.02533180114810,15.0253318,0.0001158,LEO
55366,STARLINK-5654,2023,95.84,290.0,+,43.0,Active,1,LEO,USA,USA,Commercial,Communications,Falcon,1 55366U 23013AM  25056.65488346 -.00003137  00000+0 -21726-3 0  9992,2 55366  43.0030 176.0190 0001104 281.6526  78.4193 15.02539020115575,15.0253902,0.0001104,LEO
55367,STARLINK-5635,2023,95.84,290.0,+,43.0,Active,1,LEO,USA,USA,Commercial,Communications,Falcon,1 55367U 23013AN  25056.60505576  .00000759  00000+0  71216-4 0  9998,2 55367  43.0014 176.4938 0001091 263.2853  96.7865 15.02537378115131,15.02537378,0.0001091,LEO
55368,STARLINK-5625,2023,95.84,290.0,+,43.0,Active,1,LEO,USA,USA,Commercial,Communications,Falcon,1 55368U 23013AP  25056.64156861 -.00001965  00000+0 -13044-3 0  9998,2 55368  43.0034 175.9195 0001395 269.0757  90.9926 15.02527831115572,15.02527831,0.0001395,LEO
55369,STARLINK-5644,2023,95.84,290.0,+,43.0,Active,1,LEO,USA,USA,Commercial,Communications,Falcon,1 55369U 23013AQ  25056.45160560  .00000700  00000+0  66853-4 0  9990,2 55369  43.0036 203.0730 0001178 263.9088  96.1620 15.02539378114816,15.02539378,0.0001178,LEO
55370,STARLINK-5027,2023,95.84,290.0,+,43.0,Active,1,LEO,USA,USA,Commercial,Communications,Falcon,1 55370U 23013AR  25056.38957260  .00003701  00000+0  28893-3 0  9990,2 55370  43.0024 203.4714 0001151 262.3681  97.7031 15.02526934114800,15.02526934,0.0001151,LEO
55371,STARLINK-5590,2023,95.84,290.0,+,43.0,Active,1,LEO,USA,USA,Commercial,Communications,Falcon,1 55371U 23013AS  25056.70752227  .00002133  00000+0  17291-3 0  9991,2 55371  43.0018 201.5543 0001207 277.9109  82.1596 15.02544003115286,15.02544003,0.0001207,LEO
55372,STARLINK-5568,2023,95.84,290.0,+,43.0,Active,1,LEO,USA,USA,Commercial,Communications,Falcon,1 55372U 23013AT  25056.44827530  .00000655  00000+0  63547-4 0  9996,2 55372  43.0031 203.0478 0001243 275.2126  84.8574 15.02538696114810,15.02538696,0.0001243,LEO
55373,STARLINK-5581,2023,95.84,290.0,+,43.0,Active,1,LEO,USA,USA,Commercial,Communications,Falcon,1 55373U 23013AU  25056.46936980  .00003356  00000+0  26341-3 0  9990,2 55373  43.0013 203.1979 0000447 150.4890 209.5978 15.02529086114812,15.02529086,4.47e-05,LEO
55374,STARLINK-5578,2023,95.84,290.0,+,43.0,Active,1,LEO,USA,USA,Commercial,Communications,Falcon,1 55374U 23013AV  25056.37846659  .00000639  00000+0  62367-4 0  9994,2 55374  43.0014 203.3846 0001266 271.3082  88.7615 15.02536543114805,15.02536543,0.0001266,LEO
55375,STARLINK-5588,2023,95.84,290.0,+,43.0,Active,1,LEO,USA,USA,Commercial,Communications,Falcon,1 55375U 23013AW  25056.43495756  .00001081  00000+0  95064-4 0  9992,2 55375  43.0042 202.9487 0001305 270.4733  89.5960 15.02532650114818,15.0253265,0.0001305,LEO
55376,STARLINK-5586,2023,95.84,290.0,+,43.0,Active,1,LEO,USA,USA,Commercial,Communications,Falcon,1 55376U 23013AX  25056.60838174  .00000703  00000+0  67106-4 0  9993,2 55376  43.0024 176.5158 0001319 268.1234  91.9457 15.02536923115136,15.02536923,0.0001319,LEO
55377,STARLINK-5567,2023,95.84,290.0,+,43.0,Active,1,LEO,USA,USA,Commercial,Communications,Falcon,1 55377U 23013AY  25056.68755936 -.00001234  00000+0 -76301-4 0  9995,2 55377  43.0025 201.4035 0001175 268.6437  91.4270 15.02524964115286,15.02524964,0.0001175,LEO
55378,STARLINK-5572,2023,95.84,290.0,+,43.0,Active,1,LEO,USA,USA,Commercial,Communications,Falcon,1 55378U 23013AZ  25056.70420352 -.00000415  00000+0 -15634-4 0  9992,2 55378  43.0017 201.5280 0001626 272.0866  87.9790 15.02531828115281,15.02531828,0.0001626,LEO
55379,STARLINK-5569,2023,95.84,290.0,+,43.0,Active,1,LEO,USA,USA,Commercial,Communications,Falcon,1 55379U 23013BA  25056.82717303 -.00001696  00000+0 -11055-3 0  9995,2 55379  43.0013 200.7310 0001079 269.1637  90.9082 15.02519001115308,15.02519001,0.0001079,LEO
55380,STARLINK-5571,2023,95.84,290.0,+,43.0,Active,1,LEO,USA,USA,Commercial,Communications,Falcon,1 55380U 23013BB  25056.63823979 -.00000647  00000+0 -32817-4 0  9998,2 55380  43.0017 175.8938 0001188 274.5762  85.4944 15.02546109115149,15.02546109,0.0001188,LEO
55381,STARLINK-5575,2023,95.84,-1.0,+,43.0,Active,0,LEO,USA,USA,Unknown,Unknown,Unknown,1 55381U 23013BC  25056.42497395  .00006176  00000+0  47190-3 0  9995,2 55381  43.0036 202.8710 0001202 255.4639 104.6070 15.02534146114813,15.02534146,0.0001202,LEO
55382,STARLINK-5576,2023,95.84,290.0,+,43.0,Active,1,LEO,USA,USA,Commercial,Communications,Falcon,1 55382U 23013BD  25056.69754878 -.00001143  00000+0 -69581-4 0  9997,2 55382  43.0032 201.4786 0001582 275.4042  84.6620 15.02528318115283,15.02528318,0.0001582,LEO
55383,STARLINK-5531,2023,95.84,290.0,+,43.0,Active,1,LEO,USA,USA,Commercial,Communications,Falcon,1 55383U 23013BE  25056.63490860 -.00000019  00000+0  13633-4 0  9997,2 55383  43.0036 175.8637 0001012 274.5873  85.4854 15.02536608115578,15.02536608,0.0001012,LEO
55384,STARLINK-5537,2023,95.84,290.0,+,43.0,Active,1,LEO,USA,USA,Commercial,Communications,Falcon,1 55384U 23013BF  25056.69532707 -.00000417  00000+0 -15821-4 0  9995,2 55384  43.0038 201.4639 0001594 274.8134  85.2527 15.02527964115285,15.02527964,0.0001594,LEO
55385,STARLINK-5556,2023,95.84,290.0,+,43.0,Active,1,LEO,USA,USA,Commercial,Communications,Falcon,1 55385U 23013BG  25056.81385041  .00002348  00000+0  18884-3 0  9991,2 55385  43.0022 200.6306 0001311 270.5283  89.5409 15.02530899115306,15.02530899,0.0001311,LEO
55386,STARLINK-5555,2023,95.84,290.0,+,43.0,Active,1,LEO,USA,USA,Commercial,Communications,Falcon,1 55386U 23013BH  25056.75070425 -.00001363  00000+0 -85803-4 0  9996,2 55386  43.0026 201.0149 0000905 303.0688  57.0068 15.02541915115290,15.02541915,9.05e-05,LEO
55391,STARLINK-5077,2023,94.51,290.0,P,70.0,Active,1,LEO,USA,USA,Commercial,Communications,Falcon,1 55391U 23014A   25056.38288421  .00020978  00000+0  87616-3 0  9993,2 55391  69.9990 292.3800 0003626 272.7479  87.3278 15.23614844115624,15.23614844,0.0003626,LEO
55392,STARLINK-5085,2023,96.11,290.0,+,70.0,Active,1,LEO,USA,USA,Commercial,Communications,Falcon,1 55392U 23014B   25056.84476222  .00001614  00000+0  14303-3 0  9992,2 55392  69.9993 274.5051 0002646 271.4766  88.6090 14.98332219115163,14.98332219,0.0002646,LEO
55393,STARLINK-4786,2023,96.11,290.0,+,70.0,Active,1,LEO,USA,USA,Commercial,Communications,Falcon,1 55393U 23014C   25056.39854067  .00000415  00000+0  42575-4 0  9991,2 55393  69.9989 295.6410 0002863 270.1129  89.9702 14.98331976115547,14.98331976,0.0002863,LEO
55395,STARLINK-5274,2023,96.11,290.0,+,70.0,Active,1,LEO,USA,USA,Commercial,Communications,Falcon,1 55395U 23014E   25056.39019133 -.00000387  00000+0 -24669-4 0  9994,2 55395  69.9987 295.5932 0002694 269.1850  90.9000 14.98332423115547,14.98332423,0.0002694,LEO
55396,STARLINK-5283,2023,96.11,290.0,+,70.0,Active,1,LEO,USA,USA,Commercial,Communications,Falcon,1 55396U 23014F   25056.79489342  .00002564  00000+0  22251-3 0  9993,2 55396  69.9995 294.6055 0002675 251.8612 108.2256 14.98351397114665,14.98351397,0.0002675,LEO
